STARLINK-1705_new
1 16579C 20070AZ  21326.15332433 -.00001488  00000-0 -99663-4 0  3262
2 16579  53.0536   3.0596 0001481  60.5080 216.1981 15.06412033    15
STARLINK-1705_old
1 26579C 20070AZ  21325.17776732 -.00000284  00000-0 -19021-4 0  3259
2 26579  53.0536   7.4394 0001418  63.2623 320.0323 15.06399762    10
